#aV2009  4 23  0  0   .00000000      96 DD+AD WGS84 FIT  NGA
## 1528 345600.00000000   900.00000000 54944  .0000000000000
+   31     2  3  4  5  6  7  8  9 10 11 12 13 14 15 16 17 18
+         19 20 21 22 23 24 25 26 27 28 29 30 31 32  0  0  0
+          0  0  0  0  0  0  0  0  0  0  0  0  0  0  0  0  0
+          0  0  0  0  0  0  0  0  0  0  0  0  0  0  0  0  0
+          0  0  0  0  0  0  0  0  0  0  0  0  0  0  0  0  0
++         0  0  0  0  0  0  0  0  0  0  0  0  0  0  0  0  0
++         0  0  0  0  0  0  0  0  0  0  0  0  0  0  0  0  0
++         0  0  0  0  0  0  0  0  0  0  0  0  0  0  0  0  0
++         0  0  0  0  0  0  0  0  0  0  0  0  0  0  0  0  0
++         0  0  0  0  0  0  0  0  0  0  0  0  0  0  0  0  0
%c cc cc ccc ccc cccc cccc cccc cccc ccccc ccccc ccccc ccccc
%c cc cc ccc ccc cccc cccc cccc cccc ccccc ccccc ccccc ccccc
%f  0.0000000  0.000000000  0.00000000000  0.000000000000000
%f  0.0000000  0.000000000  0.00000000000  0.000000000000000
%i    0    0    0    0      0      0      0      0         0
%i    0    0    0    0      0      0      0      0         0
/*      NGA, ST. LOUIS,MO.                                  
/*   EPHEMERIS COMPUTED FROM  3 DAYS OF DATA                
/* CCCCCCCCCCCCCCCCCCCCCCCCCCCCCCCCCCCCCCCCCCCCCCCCCCCCCCCCC
/* CCCCCCCCCCCCCCCCCCCCCCCCCCCCCCCCCCCCCCCCCCCCCCCCCCCCCCCCC
*  2009  4 23 15  0   .00000000                                                 
P  2  22822.165734 -11683.274893  -6155.448503    153.579004                    
V  2  -4038.805695   7579.488770 -30265.544793       .001434                    
P  3 -12039.288714  12914.106990  19438.849908    383.501260                    
V  3  -7387.624201 -24550.151300  11908.216463       .052057                    
P  4  21450.377461  -1241.277820 -15976.879801    -63.129153                    
V  4 -14920.304420  13411.293753 -20883.985819      -.150650                    
P  5  -1595.013010 -16513.958236 -21062.743791    -45.786104                    
V  5  25028.852828   7406.465253  -7691.974956      -.155178                    
P  6 -14547.039803   7679.830412  21039.696323     93.271083                    
V  6  -4861.559172 -25944.941797   6215.588302       .166727                    
P  7   4366.517740  15092.195618  21378.971167     19.953906                    
V  7 -22233.916154  15663.637257  -6621.638848      -.005617                    
P  8  16488.342430   5199.124774  20257.356339   -199.803675                    
V  8 -21183.146646  14419.660876  13023.859470      -.017733                    
P  9  11536.016319 -20396.324529 -13054.805899     52.250744                    
V  9  13288.853202  -8253.558673  26040.933644       .018949                    
P 10  18757.629480  -5245.275133  18042.733856    -14.844361                    
V 10  20351.258896  11082.605005 -17442.397097      -.006710                    
P 11  -7420.502630  22615.455670 -11630.368929       .085440                    
V 11 -13053.878062   8198.767492  25058.386602      -.014428                    
P 12    926.161636 -15707.880506 -21339.879992   -290.492704                    
V 12  25113.632643  10548.660723  -6535.083076       .049168                    
P 13   5817.666084  24967.885403   6829.910345    295.274911                    
V 13  -1171.401969   8891.751819 -30921.576332       .010015                    
P 14 -13783.077058 -11327.807427 -19596.047262   -121.420949                    
V 14   -993.418367 -25028.127836  14966.955245       .058171                    
P 15   8182.130607 -20238.483185  15109.196335   -284.329171                    
V 15   4546.972549  18759.852260  22758.517435      -.041473                    
P 16 -21847.178034   1480.527018  15262.815754     57.016833                    
V 16 -16679.818604  -9576.744048 -22803.364991      -.031815                    
P 17  14139.787169  13054.921550 -18320.691034     55.600664                    
V 17    773.480285  23365.390484  16997.264006       .017980                    
P 18 -18203.391691 -16831.448449  10240.562788    -63.041443                    
V 18  12522.555461   2987.511572  27396.332785       .033772                    
P 19  -8396.845087  21425.881194  13106.833943     27.587802                    
V 19  -3137.916269 -16532.411996  25380.585590      -.009745                    
P 20   1421.103478  16800.515834 -20659.755182     84.546108                    
V 20 -24425.593539  -8962.840232  -8982.214828      -.010366                    
P 21  -9163.964416 -12984.971831  21522.699131     17.726302                    
V 21  22087.971007 -15289.741127   -450.055748      -.019978                    
P 22 -23877.467072 -11717.878357    324.494850    201.042380                    
V 22   1682.345651  -2973.412221  31244.543043      -.008281                    
P 23   -406.864901  26008.306713  -4621.924521    389.608184                    
V 23  -3290.394142  -5528.756057 -31426.101942       .002780                    
P 24   6380.225685 -19187.314861  17486.040470    183.483138                    
V 24  19150.560686 -10698.372737 -18613.063982       .029345                    
P 25  -2097.039414  19128.166919  18740.118039    375.224603                    
V 25 -17894.741140  14472.385705 -16900.794447       .207781                    
P 26   5067.638616 -23641.186121   9835.962696     58.114193                    
V 26   2901.087574  13269.282022  29338.060815       .017103                    
P 27  20404.205137 -17045.028596    -82.058546     43.234882                    
V 27   2204.420539   1226.284496  32017.568744       .031912                    
P 28  23062.722669  13254.075247   3089.475287    -24.194249                    
V 28  -4035.425399    675.488879  31346.519147      -.003518                    
P 29  -5937.318274 -25384.350984   5297.996074     12.796705                    
V 29   2136.811304  -6796.556481 -30756.970273       .040791                    
P 30 -11182.531218 -17386.219620 -17086.628586    141.280043                    
V 30  20231.401327   5903.656608 -19584.863763       .027153                    
P 31 -21834.623860   3872.376908 -14514.763944    -58.478865                    
V 31  13962.928030 -12587.964412 -23881.225643      -.010227                    
P 32  -7949.496927  12685.974136 -21533.703560    270.865833                    
V 32 -24776.361565 -13677.194945   1310.607690      -.049681                    
EOF
